CCSDS_OEM_VERS = 1.0
CREATION_DATE  = 2017-05-11T11:10:37
ORIGINATOR     = GMAT USER

META_START
OBJECT_NAME          = MOPSSat_alt_35785_km_RAAN_90_006
OBJECT_ID            = SatId
CENTER_NAME          = Earth
REF_FRAME            = EME2000
TIME_SYSTEM          = UTC
START_TIME           = 2017-01-01T00:00:00.000
USEABLE_START_TIME   = 2017-01-01T00:00:00.000
USEABLE_STOP_TIME    = 2017-01-02T00:00:00.000
STOP_TIME            = 2017-01-02T00:00:00.000
INTERPOLATION        = Lagrange
INTERPOLATION_DEGREE = 7 
META_STOP


                                                                                   

2017-01-01T06:06:40.000  -4.214026748747668e+04  -1.411516648756661e+03   1.457577868299132e+00   1.029787887882337e-01  -3.072916792054842e+00   4.269001070829741e-05
2017-01-01T06:06:50.000  -4.213922649501917e+04  -1.442245438384580e+03   1.458004481784948e+00   1.052196935054145e-01  -3.072840861183011e+00   4.263267888839290e-05
2017-01-01T06:07:00.000  -4.213816309378188e+04  -1.472973460842992e+03   1.458430521729897e+00   1.074605424026616e-01  -3.072763296255561e+00   4.257530168017854e-05
2017-01-01T06:07:10.000  -4.213707728432846e+04  -1.503700699775433e+03   1.458855987679950e+00   1.097013342873619e-01  -3.072684097313575e+00   4.251787910445588e-05
2017-01-01T06:07:20.000  -4.213596906724777e+04  -1.534427138514403e+03   1.459280879177030e+00   1.119420679442201e-01  -3.072603264399988e+00   4.246041118264368e-05
2017-01-01T06:07:30.000  -4.213483844313707e+04  -1.565152760479232e+03   1.459705195764454e+00   1.141827421642731e-01  -3.072520797558339e+00   4.240289793602964e-05
2017-01-01T06:07:40.000  -4.213368541260824e+04  -1.595877549019350e+03   1.460128936984780e+00   1.164233557334601e-01  -3.072436696833239e+00   4.234533938606477e-05
2017-01-01T06:07:50.000  -4.213250997626191e+04  -1.626601488107643e+03   1.460552102389370e+00   1.186639074831865e-01  -3.072350962268472e+00   4.228773555306365e-05
2017-01-01T06:08:00.000  -4.213131213471315e+04  -1.657324561647106e+03   1.460974691528824e+00   1.209043962397605e-01  -3.072263593908878e+00   4.223008645750419e-05
2017-01-01T06:08:10.000  -4.213009188858607e+04  -1.688046753627621e+03   1.461396703955153e+00   1.231448208358269e-01  -3.072174591799953e+00   4.217239211973397e-05
2017-01-01T06:08:20.000  -4.212884923852651e+04  -1.718768047727963e+03   1.461818139216229e+00   1.253851800813427e-01  -3.072083955988780e+00   4.211465256071527e-05
2017-01-01T06:08:30.000  -4.212758418519347e+04  -1.749488427611329e+03   1.462238996859938e+00   1.276254727851292e-01  -3.071991686523402e+00   4.205686780147215e-05
2017-01-01T06:08:40.000  -4.212629672925791e+04  -1.780207876925304e+03   1.462659276434130e+00   1.298656977548691e-01  -3.071897783452731e+00   4.199903786308990e-05
2017-01-01T06:08:50.000  -4.212498687141806e+04  -1.810926379006610e+03   1.463078977482674e+00   1.321058537755754e-01  -3.071802246827672e+00   4.194116276727048e-05
2017-01-01T06:09:00.000  -4.212365461237996e+04  -1.841643917278853e+03   1.463498099550813e+00   1.343459396385972e-01  -3.071705076699694e+00   4.188324253558460e-05
2017-01-01T06:09:10.000  -4.212229995286492e+04  -1.872360475092862e+03   1.463916642183006e+00   1.365859541299762e-01  -3.071606273121382e+00   4.182527718977135e-05
2017-01-01T06:09:20.000  -4.212092289357844e+04  -1.903076036431461e+03   1.464334604932535e+00   1.388258960818428e-01  -3.071505836144166e+00   4.176726675041580e-05
2017-01-01T06:09:30.000  -4.211952343524115e+04  -1.933790585202920e+03   1.464751987351868e+00   1.410657643208904e-01  -3.071403765820581e+00   4.170921123827439e-05
2017-01-01T06:09:40.000  -4.211810157858106e+04  -1.964504105423355e+03   1.465168788995149e+00   1.433055576816772e-01  -3.071300062203698e+00   4.165111067393402e-05
2017-01-01T06:09:50.000  -4.211665732435369e+04  -1.995216580726218e+03   1.465585009411484e+00   1.455452749708556e-01  -3.071194725348597e+00   4.159296507872699e-05
2017-01-01T06:10:00.000  -4.211519067332592e+04  -2.025927994767106e+03   1.466000648150494e+00   1.477849149966932e-01  -3.071087755311179e+00   4.153477447397819e-05
2017-01-01T06:10:10.000  -4.211370162627937e+04  -2.056638331133423e+03   1.466415704761073e+00   1.500244765624841e-01  -3.070979152148428e+00   4.147653888117169e-05
2017-01-01T06:10:20.000  -4.211219018401101e+04  -2.087347573369007e+03   1.466830178791764e+00   1.522639584683455e-01  -3.070868915918445e+00   4.141825832191540e-05
2017-01-01T06:10:30.000  -4.211065634733033e+04  -2.118055705004658e+03   1.467244069791137e+00   1.545033595134442e-01  -3.070757046680236e+00   4.135993281787254e-05
2017-01-01T06:10:40.000  -4.210910011705884e+04  -2.148762709569235e+03   1.467657377307945e+00   1.567426784968055e-01  -3.070643544493693e+00   4.130156239074375e-05
2017-01-01T06:10:50.000  -4.210752149402538e+04  -2.179468570699514e+03   1.468070100892618e+00   1.589819142253241e-01  -3.070528409419237e+00   4.124314706205229e-05
2017-01-01T06:11:00.000  -4.210592047906877e+04  -2.210173272066942e+03   1.468482240096258e+00   1.612210655084233e-01  -3.070411641518020e+00   4.118468685328885e-05
2017-01-01T06:11:10.000  -4.210429707303819e+04  -2.240876797377650e+03   1.468893794470642e+00   1.634601311580564e-01  -3.070293240851944e+00   4.112618178590928e-05
2017-01-01T06:11:20.000  -4.210265127678825e+04  -2.271579130445621e+03   1.469304763569182e+00   1.656991099940409e-01  -3.070173207483311e+00   4.106763188120080e-05
2017-01-01T06:11:30.000  -4.210098309118552e+04  -2.302280255082937e+03   1.469715146945468e+00   1.679380008360565e-01  -3.070051541475294e+00   4.100903716048502e-05
2017-01-01T06:11:40.000  -4.209929251710941e+04  -2.332980155088717e+03   1.470124944153128e+00   1.701768025028372e-01  -3.069928242891999e+00   4.095039764514215e-05
2017-01-01T06:11:50.000  -4.209757955545226e+04  -2.363678814218475e+03   1.470534154745385e+00   1.724155138099372e-01  -3.069803311798478e+00   4.089171335665936e-05
2017-01-01T06:12:00.000  -4.209584420712254e+04  -2.394376216159690e+03   1.470942778274765e+00   1.746541335679494e-01  -3.069676748260959e+00   4.083298431668806e-05
2017-01-01T06:12:10.000  -4.209408647303899e+04  -2.425072344622049e+03   1.471350814294294e+00   1.768926605890860e-01  -3.069548552346416e+00   4.077421054686761e-05
2017-01-01T06:12:20.000  -4.209230635415599e+04  -2.455767182933119e+03   1.471758262352171e+00   1.791310936576932e-01  -3.069418724124424e+00   4.071539206961032e-05
2017-01-01T06:12:30.000  -4.209050385143337e+04  -2.486460714528367e+03   1.472165121998225e+00   1.813694315659860e-01  -3.069287263664954e+00   4.065652890715260e-05
2017-01-01T06:12:40.000  -4.208867896584734e+04  -2.517152922768933e+03   1.472571392781519e+00   1.836076731007583e-01  -3.069154171039167e+00   4.059762108190682e-05
2017-01-01T06:12:50.000  -4.208683169834882e+04  -2.547843791647644e+03   1.472977074259687e+00   1.858458170948714e-01  -3.069019446316390e+00   4.053866861510222e-05
2017-01-01T06:13:00.000  -4.208496204990475e+04  -2.578533305084798e+03   1.473382165989611e+00   1.880838623758961e-01  -3.068883089567108e+00   4.047967152813994e-05
2017-01-01T06:13:10.000  -4.208307002148930e+04  -2.609221447087752e+03   1.473786667529545e+00   1.903218077777531e-01  -3.068745100862339e+00   4.042062984228642e-05
2017-01-01T06:13:20.000  -4.208115561410511e+04  -2.639908201353310e+03   1.474190578433791e+00   1.925596521117150e-01  -3.068605480275169e+00   4.036154357943490e-05
2017-01-01T06:13:30.000  -4.207921882876837e+04  -2.670593551562987e+03   1.474593898256679e+00   1.947973941879401e-01  -3.068464227879682e+00   4.030241276154126e-05
2017-01-01T06:13:40.000  -4.207725966650757e+04  -2.701277481382951e+03   1.474996626552526e+00   1.970350328154676e-01  -3.068321343750851e+00   4.024323741062220e-05
2017-01-01T06:13:50.000  -4.207527812838517e+04  -2.731959974169180e+03   1.475398762871853e+00   1.992725667807154e-01  -3.068176827966131e+00   4.018401754932906e-05
2017-01-01T06:14:00.000  -4.207327421546970e+04  -2.762641013364685e+03   1.475800306766517e+00   2.015099948764488e-01  -3.068030680603413e+00   4.012475320017667e-05
2017-01-01T06:14:10.000  -4.207124792884615e+04  -2.793320582343022e+03   1.476201257787681e+00   2.037473158903678e-01  -3.067882901741795e+00   4.006544438584691e-05
2017-01-01T06:14:20.000  -4.206919926957066e+04  -2.823998665100627e+03   1.476601615494866e+00   2.059845286555968e-01  -3.067733491458267e+00   4.000609112784937e-05
2017-01-01T06:14:30.000  -4.206712823871570e+04  -2.854675245564487e+03   1.477001379446892e+00   2.082216320001949e-01  -3.067582449831008e+00   3.994669344786054e-05
2017-01-01T06:14:40.000  -4.206503483736035e+04  -2.885350307748696e+03   1.477400549203938e+00   2.104586247585740e-01  -3.067429776938680e+00   3.988725136742129e-05
2017-01-01T06:14:50.000  -4.206291906661417e+04  -2.916023835356986e+03   1.477799124322291e+00   2.126955057425123e-01  -3.067275472862173e+00   3.982776490870496e-05
2017-01-01T06:15:00.000  -4.206078092760045e+04  -2.946695812077890e+03   1.478197104358266e+00   2.149322737626805e-01  -3.067119537683368e+00   3.976823409394712e-05
2017-01-01T06:15:10.000  -4.205862042145480e+04  -2.977366221584676e+03   1.478594488868179e+00   2.171689276286351e-01  -3.066961971485049e+00   3.970865894544521e-05
2017-01-01T06:15:20.000  -4.205643754934899e+04  -3.008035047240650e+03   1.478991277404599e+00   2.194054661273289e-01  -3.066802774352638e+00   3.964903948613011e-05
2017-01-01T06:15:30.000  -4.205423231246005e+04  -3.038702272496194e+03   1.479387469521422e+00   2.216418880520649e-01  -3.066641946371939e+00   3.958937573879640e-05
2017-01-01T06:15:40.000  -4.205200471198238e+04  -3.069367880729364e+03   1.479783064771828e+00   2.238781921908717e-01  -3.066479487630022e+00   3.952966772641060e-05
